NORAD_CAT_ID,OBJECT_NAME,OBJECT_TYPE,EPOCH,MEAN_MOTION,ECCENTRICITY,INCLINATION,RA_OF_ASC_NODE,ARG_OF_PERICENTER,MEAN_ANOMALY,BSTAR,MEAN_MOTION_DOT,MEAN_MOTION_DDOT,TLE_LINE0,TLE_LINE1,TLE_LINE2,SEMIMAJOR_AXIS,PERIOD,APOGEE,PERIGEE,DECAYED
51873.0,STARLINK-3582,PAYLOAD,2024-06-30 04:20:06,15.08820325,0.0001135,53.2143,261.2313,109.1856,250.9259,-0.00015602,-2.769e-05,0.0,0 STARLINK-3582,1 51873U 22022X   24182.18062764 -.00002769  00000-0 -15602-3 0  9996,2 51873  53.2143 261.2313 0001135 109.1856 250.9259 15.08820325129897,6917.941,95.439,540.591,539.02,0.0
51873.0,STARLINK-3582,PAYLOAD,2024-06-30 12:17:01,15.08836557,0.0001128,53.2157,259.7511,101.2461,258.8658,0.00025429,3.761e-05,0.0,0 STARLINK-3582,1 51873U 22022X   24182.51182189  .00003761  00000-0  25429-3 0  9996,2 51873  53.2157 259.7511 0001128 101.2461 258.8658 15.08836557129941,6917.891,95.438,540.536,538.976,0.0
51873.0,STARLINK-3582,PAYLOAD,2024-06-30 21:49:20,15.08853128,9.81e-05,53.2156,257.9651,100.5863,259.524,0.0011501,0.0001807,0.0,0 STARLINK-3582,1 51873U 22022X   24182.90926300  .00018070  00000-0  11501-2 0  9994,2 51873  53.2156 257.9651 0000981 100.5863 259.5240 15.08853128130006,6917.84,95.437,540.384,539.027,0.0
51873.0,STARLINK-3582,PAYLOAD,2024-07-01 13:43:11,15.08860434,0.0001143,53.216,254.9922,79.0426,281.0695,0.0019446,0.00030813,0.0,0 STARLINK-3582,1 51873U 22022X   24183.57166235  .00030813  00000-0  19446-2 0  9996,2 51873  53.2160 254.9922 0001143  79.0426 281.0695 15.08860434130108,6917.818,95.436,540.474,538.892,0.0
51873.0,STARLINK-3582,PAYLOAD,2024-07-01 21:40:06,15.08881851,9.98e-05,53.2159,253.5052,86.2279,273.8828,0.0019736,0.00031298,0.0,0 STARLINK-3582,1 51873U 22022X   24183.90285504  .00031298  00000-0  19736-2 0  9994,2 51873  53.2159 253.5052 0000998  86.2279 273.8828 15.08881851130156,6917.752,95.435,540.308,538.927,0.0
51873.0,STARLINK-3582,PAYLOAD,2024-07-02 11:58:35,15.08830774,0.0001015,53.215,250.8288,96.4748,263.6359,0.0008492,0.0001325,0.0,0 STARLINK-3582,1 51873U 22022X   24184.49902248  .00013250  00000-0  84920-3 0  9996,2 51873  53.2150 250.8288 0001015  96.4748 263.6359 15.08830774130247,6917.909,95.438,540.476,539.071,0.0
51873.0,STARLINK-3582,PAYLOAD,2024-07-02 13:33:58,15.08829308,0.0001031,53.215,250.5314,95.3992,264.7117,0.0010798,0.00016934,0.0,0 STARLINK-3582,1 51873U 22022X   24184.56526329  .00016934  00000-0  10798-2 0  9999,2 51873  53.2150 250.5314 0001031  95.3992 264.7117 15.08829308130257,6917.913,95.438,540.491,539.065,0.0
51873.0,STARLINK-3582,PAYLOAD,2024-07-03 11:49:23,15.08840788,0.0001114,53.2146,246.3686,99.3373,260.7745,0.00061265,9.476e-05,0.0,0 STARLINK-3582,1 51873U 22022X   24185.49262759  .00009476  00000-0  61265-3 0  9995,2 51873  53.2146 246.3686 0001114  99.3373 260.7745 15.08840788130399,6917.878,95.438,540.514,538.972,0.0
51873.0,STARLINK-3582,PAYLOAD,2024-07-03 21:21:41,15.08848244,0.0001068,53.2145,244.583,99.165,260.9463,0.0006253,9.68e-05,0.0,0 STARLINK-3582,1 51873U 22022X   24185.89006568  .00009680  00000-0  62530-3 0  9996,2 51873  53.2145 244.5830 0001068  99.1650 260.9463 15.08848244130454,6917.855,95.437,540.459,538.981,0.0
51873.0,STARLINK-3582,PAYLOAD,2024-07-04 13:15:32,15.08847057,0.000112,53.2148,241.61,98.719,261.3929,0.00032553,4.898e-05,0.0,0 STARLINK-3582,1 51873U 22022X   24186.55246457  .00004898  00000-0  32553-3 0  9991,2 51873  53.2148 241.6100 0001120  98.7190 261.3929 15.08847057130552,6917.859,95.437,540.499,538.949,0.0
51873.0,STARLINK-3582,PAYLOAD,2024-07-04 21:12:28,15.08852094,0.0001179,53.2145,240.1232,97.0458,263.0668,0.00036456,5.521e-05,0.0,0 STARLINK-3582,1 51873U 22022X   24186.88366229  .00005521  00000-0  36456-3 0  9997,2 51873  53.2145 240.1232 0001179  97.0458 263.0668 15.08852094130604,6917.843,95.437,540.524,538.893,0.0
51873.0,STARLINK-3582,PAYLOAD,2024-07-05 09:55:33,15.08843127,0.0001307,53.2159,237.745,100.1977,259.9162,6.0359e-05,6.73e-06,0.0,0 STARLINK-3582,1 51873U 22022X   24187.41358420  .00000673  00000-0  60359-4 0  9994,2 51873  53.2159 237.7450 0001307 100.1977 259.9162 15.08843127130686,6917.871,95.437,540.64,538.832,0.0
51873.0,STARLINK-3582,PAYLOAD,2024-07-06 09:46:20,15.08839656,0.0001147,53.2163,233.2853,90.9207,269.1917,1.1351e-05,-1.07e-06,0.0,0 STARLINK-3582,1 51873U 22022X   24188.40718708 -.00000107  00000-0  11351-4 0  9994,2 51873  53.2163 233.2853 0001147  90.9207 269.1917 15.08839656130833,6917.881,95.438,540.54,538.953,0.0
51873.0,STARLINK-3582,PAYLOAD,2024-07-07 09:37:08,15.08837545,0.0001145,53.2158,228.8242,91.7274,268.3849,4.0565e-05,3.58e-06,0.0,0 STARLINK-3582,1 51873U 22022X   24189.40078726  .00000358  00000-0  40565-4 0  9990,2 51873  53.2158 228.8242 0001145  91.7274 268.3849 15.08837545130986,6917.888,95.438,540.545,538.961,0.0
51873.0,STARLINK-3582,PAYLOAD,2024-07-08 09:27:55,15.08837735,0.0001212,53.2164,224.3636,88.7955,271.3176,0.00010079,1.316e-05,0.0,0 STARLINK-3582,1 51873U 22022X   24190.39438713  .00001316  00000-0  10079-3 0  9997,2 51873  53.2164 224.3636 0001212  88.7955 271.3176 15.08837735131134,6917.887,95.438,540.591,538.914,0.0
51873.0,STARLINK-3582,PAYLOAD,2024-07-08 19:00:13,15.08843281,0.000121,53.2163,222.5793,87.9606,272.1525,0.00012837,1.756e-05,0.0,0 STARLINK-3582,1 51873U 22022X   24190.79182331  .00001756  00000-0  12837-3 0  9995,2 51873  53.2163 222.5793 0001210  87.9606 272.1525 15.08843281131195,6917.87,95.437,540.572,538.898,0.0
51873.0,STARLINK-3582,PAYLOAD,2024-07-09 09:18:42,15.08831834,0.0001284,53.2173,219.9051,94.5297,265.5842,3.218e-05,2.24e-06,0.0,0 STARLINK-3582,1 51873U 22022X   24191.38799375  .00000224  00000-0  32180-4 0  9996,2 51873  53.2173 219.9051 0001284  94.5297 265.5842 15.08831834131283,6917.905,95.438,540.659,538.882,0.0
51873.0,STARLINK-3582,PAYLOAD,2024-07-10 10:44:52,15.08833061,0.0001232,53.2169,215.1469,96.4941,263.6192,0.00014337,1.994e-05,0.0,0 STARLINK-3582,1 51873U 22022X   24192.44783182  .00001994  00000-0  14337-3 0  9991,2 51873  53.2169 215.1469 0001232  96.4941 263.6192 15.08833061131448,6917.902,95.438,540.619,538.914,0.0
51873.0,STARLINK-3582,PAYLOAD,2024-07-11 10:35:39,15.08837714,0.000126,53.2157,210.6846,89.4805,270.6332,7.7346e-05,9.43e-06,0.0,0 STARLINK-3582,1 51873U 22022X   24193.44143172  .00000943  00000-0  77346-4 0  9994,2 51873  53.2157 210.6846 0001260  89.4805 270.6332 15.08837714131595,6917.887,95.438,540.624,538.881,0.0
51873.0,STARLINK-3582,PAYLOAD,2024-07-11 18:32:35,15.08840243,0.0001272,53.2158,209.198,88.615,271.4988,7.6019e-05,9.22e-06,0.0,0 STARLINK-3582,1 51873U 22022X   24193.77263047  .00000922  00000-0  76019-4 0  9997,2 51873  53.2158 209.1980 0001272  88.6150 271.4988 15.08840243131648,6917.88,95.438,540.625,538.865,0.0
51873.0,STARLINK-3582,PAYLOAD,2024-07-12 10:26:26,15.08844828,0.0001296,53.2158,206.2238,90.5098,269.6043,8.2424e-05,1.024e-05,0.0,0 STARLINK-3582,1 51873U 22022X   24194.43502718  .00001024  00000-0  82424-4 0  9993,2 51873  53.2158 206.2238 0001296  90.5098 269.6043 15.08844828131746,6917.866,95.437,540.627,538.834,0.0
51873.0,STARLINK-3582,PAYLOAD,2024-07-12 18:23:21,15.08845825,0.0001294,53.2158,204.737,90.58,269.534,8.9606e-05,1.139e-05,0.0,0 STARLINK-3582,1 51873U 22022X   24194.76622586  .00001139  00000-0  89606-4 0  9991,2 51873  53.2158 204.7370 0001294  90.5800 269.5340 15.08845825131797,6917.863,95.437,540.623,538.832,0.0
51873.0,STARLINK-3582,PAYLOAD,2024-07-13 03:55:41,15.08838877,0.0001358,53.2163,202.9532,91.9175,268.1973,4.6124e-05,4.46e-06,0.0,0 STARLINK-3582,1 51873U 22022X   24195.16367145  .00000446  00000-0  46124-4 0  9991,2 51873  53.2163 202.9532 0001358  91.9175 268.1973 15.08838877131857,6917.884,95.438,540.688,538.809,0.0
51873.0,STARLINK-3582,PAYLOAD,2024-07-13 10:17:13,15.08840345,0.0001389,53.2165,201.7635,93.8894,266.2257,5.5116e-05,5.89e-06,0.0,0 STARLINK-3582,1 51873U 22022X   24195.42863012  .00000589  00000-0  55116-4 0  9993,2 51873  53.2165 201.7635 0001389  93.8894 266.2257 15.08840345131894,6917.879,95.438,540.705,538.783,0.0
51873.0,STARLINK-3582,PAYLOAD,2024-07-14 05:21:51,15.08841212,0.0001396,53.2166,198.1945,95.7656,264.3495,1.4473e-05,-5.8e-07,0.0,0 STARLINK-3582,1 51873U 22022X   24196.22351056 -.00000058  00000-0  14473-4 0  9995,2 51873  53.2166 198.1945 0001396  95.7656 264.3495 15.08841212132015,6917.877,95.437,540.707,538.776,0.0
51873.0,STARLINK-3582,PAYLOAD,2024-07-14 06:57:14,15.08840956,0.0001363,53.2164,197.8982,91.1346,268.9803,1.8793e-05,1.1e-07,0.0,0 STARLINK-3582,1 51873U 22022X   24196.28975068  .00000011  00000-0  18793-4 0  9993,2 51873  53.2164 197.8982 0001363  91.1346 268.9803 15.08840956132028,6917.877,95.437,540.685,538.8,0.0
51873.0,STARLINK-3582,PAYLOAD,2024-07-15 06:48:01,15.08837091,0.00013,53.216,193.4375,89.9433,270.1709,4.7893e-05,4.74e-06,0.0,0 STARLINK-3582,1 51873U 22022X   24197.28335271  .00000474  00000-0  47893-4 0  9996,2 51873  53.2160 193.4375 0001300  89.9433 270.1709 15.08837091132177,6917.889,95.438,540.654,538.855,0.0
51873.0,STARLINK-3582,PAYLOAD,2024-07-15 16:20:20,15.08841294,0.0001273,53.2159,191.6527,88.2474,271.8664,7.251e-05,8.66e-06,0.0,0 STARLINK-3582,1 51873U 22022X   24197.68078975  .00000866  00000-0  72510-4 0  9994,2 51873  53.2159 191.6527 0001273  88.2474 271.8664 15.08841294132235,6917.876,95.437,540.622,538.861,0.0
51873.0,STARLINK-3582,PAYLOAD,2024-07-16 06:38:49,15.08835062,0.0001416,53.2171,188.978,91.948,268.1674,3.4016e-05,2.53e-06,0.0,0 STARLINK-3582,1 51873U 22022X   24198.27695614  .00000253  00000-0  34016-4 0  9994,2 51873  53.2171 188.9780 0001416  91.9480 268.1674 15.08835062132322,6917.895,95.438,540.74,538.781,0.0
51873.0,STARLINK-3582,PAYLOAD,2024-07-17 04:54:12,15.08840354,0.0001439,53.2174,184.8164,102.9603,257.155,7.2212e-05,8.62e-06,0.0,0 STARLINK-3582,1 51873U 22022X   24199.20431287  .00000862  00000-0  72212-4 0  9998,2 51873  53.2174 184.8164 0001439 102.9603 257.1550 15.08840354132467,6917.879,95.438,540.74,538.749,0.0
